M2 PATHFINDER           
1 45727U 20037E   20300.52046871  .00000857  00000-0  91631-4 0  9999
2 45727  97.7068 117.5969 0012112 219.0003 141.0370 14.91244949 17555
